{
"type": "FeatureCollection",
"name": "cedis",
"crs": { "type": "name", "properties": { "name": "urn:ogc:def:crs:OGC:1.3:CRS84" } },
"features": [
{ "type": "Feature", "properties": { "fid": 1, "Nombre": "CEDIS Cuautitlan", "Direccion": "Alijadores Mz. 017, San Sebastian Xhala, Cuautitlan Izcalli, Mex.", "Latitud": 19.6892, "Longitud": -99.2081 }, "geometry": { "type": "Point", "coordinates": [ -99.2081, 19.6892 ] } },
{ "type": "Feature", "properties": { "fid": 2, "Nombre": "CEDIS Ecatepec", "Direccion": "Mexico-Pachuca Av. Nacional 370, Jardines de los Baez, Ecatepec, Mex.", "Latitud": 19.5964, "Longitud": -99.0125 }, "geometry": { "type": "Point", "coordinates": [ -99.0125, 19.5964 ] } },
{ "type": "Feature", "properties": { "fid": 3, "Nombre": "CEDIS Vallejo", "Direccion": "Pte. 146 #765, Industrial Vallejo, Azcapotzalco, CDMX", "Latitud": 19.4932, "Longitud": -99.1684 }, "geometry": { "type": "Point", "coordinates": [ -99.1684, 19.4932 ] } },
{ "type": "Feature", "properties": { "fid": 4, "Nombre": "CEDIS Tlahuac", "Direccion": "Venado 133, Los Olivos, Tlahuac, CDMX", "Latitud": 19.3242, "Longitud": -99.0635 }, "geometry": { "type": "Point", "coordinates": [ -99.0635, 19.3242 ] } },
{ "type": "Feature", "properties": { "fid": 5, "Nombre": "CEDIS Tultitlan", "Direccion": "Blvd. Benito Juarez, San Mateo Cuautepec, Tultitlan, Mex.", "Latitud": 19.645, "Longitud": -99.172 }, "geometry": { "type": "Point", "coordinates": [ -99.172, 19.645 ] } },
{ "type": "Feature", "properties": { "fid": 6, "Nombre": "CEDIS Los Reyes La Paz", "Direccion": "Camino a La Cantera 11, Los Reyes, La Paz, Mex.", "Latitud": 19.3625, "Longitud": -98.9812 }, "geometry": { "type": "Point", "coordinates": [ -98.9812, 19.3625 ] } },
{ "type": "Feature", "properties": { "fid": 7, "Nombre": "CEDIS Metepec / Toluca", "Direccion": "Carr. Tenango De Arista - Toluca 503, San Antonio la Isla, Mex.", "Latitud": 19.1831, "Longitud": -99.5786 }, "geometry": { "type": "Point", "coordinates": [ -99.5786, 19.1831 ] } },
{ "type": "Feature", "properties": { "fid": 8, "Nombre": "CEDIS Atlacomulco", "Direccion": "Ing. Salvador Sanchez Colin Mz. 008, Santa Maria Citendeje, Atlacomulco, Mex.", "Latitud": 19.789, "Longitud": -99.8652 }, "geometry": { "type": "Point", "coordinates": [ -99.8652, 19.789 ] } },
{ "type": "Feature", "properties": { "fid": 9, "Nombre": "CEDIS Tezoyuca / Acolman", "Direccion": "Camino Zurita 59, Ejido de Tequisistlan, Tezoyuca/Acolman, Mex.", "Latitud": 19.5778, "Longitud": -98.9284 }, "geometry": { "type": "Point", "coordinates": [ -98.9284, 19.5778 ] } },
{ "type": "Feature", "properties": { "fid": 10, "Nombre": "CEDIS Puebla", "Direccion": "Parque Industrial Puebla 2000, Heroica Puebla de Zaragoza, Pue.", "Latitud": 19.0682, "Longitud": -98.1568 }, "geometry": { "type": "Point", "coordinates": [ -98.1568, 19.0682 ] } },
{ "type": "Feature", "properties": { "fid": 11, "Nombre": "CEDIS Tulancingo", "Direccion": "La Lagunilla, Tulancingo de Bravo, Hgo.", "Latitud": 20.0634, "Longitud": -98.3752 }, "geometry": { "type": "Point", "coordinates": [ -98.3752, 20.0634 ] } },
{ "type": "Feature", "properties": { "fid": 12, "Nombre": "CEDIS Morelia", "Direccion": "Carretera Morelia - Salamanca, Tarimbaro, Mich.", "Latitud": 19.785, "Longitud": -101.1685 }, "geometry": { "type": "Point", "coordinates": [ -101.1685, 19.785 ] } },
{ "type": "Feature", "properties": { "fid": 13, "Nombre": "CEDIS Celaya / Apaseo", "Direccion": "Carretera Panamericana Celaya - Queretaro, Apaseo el Grande, Gto.", "Latitud": 20.542, "Longitud": -100.685 }, "geometry": { "type": "Point", "coordinates": [ -100.685, 20.542 ] } },
{ "type": "Feature", "properties": { "fid": 14, "Nombre": "CEDIS Yautepec", "Direccion": "Carr. Cuernavaca - Cuautlixco MEX-138, San Juan, Yautepec, Mor.", "Latitud": 18.887, "Longitud": -99.072 }, "geometry": { "type": "Point", "coordinates": [ -99.072, 18.887 ] } },
{ "type": "Feature", "properties": { "fid": 15, "Nombre": "CEDIS Veracruz", "Direccion": "Zona Industrial Bruno Pagliai, Tejeria, Veracruz, Ver.", "Latitud": 19.165, "Longitud": -96.223 }, "geometry": { "type": "Point", "coordinates": [ -96.223, 19.165 ] } },
{ "type": "Feature", "properties": { "fid": 17, "Nombre": "CEDIS Acapulco / Guerrero", "Direccion": "Corredor Industrial Viaducto Diamante, Acapulco, Gro.", "Latitud": 16.812, "Longitud": -99.784 }, "geometry": { "type": "Point", "coordinates": [ -99.784, 16.812 ] } },
{ "type": "Feature", "properties": { "fid": 18, "Nombre": "CEDIS Queretaro", "Direccion": "Parque Industrial Queretaro, Santa Rosa Jauregui, Qro.", "Latitud": 20.791, "Longitud": -100.435 }, "geometry": { "type": "Point", "coordinates": [ -100.435, 20.791 ] } },
{ "type": "Feature", "properties": { "fid": 19, "Nombre": "CEDIS Chalco", "Direccion": "Zona Industrial Chalco, Estado de Mexico, Mex.", "Latitud": 19.278, "Longitud": -98.882 }, "geometry": { "type": "Point", "coordinates": [ -98.882, 19.278 ] } },
{ "type": "Feature", "properties": { "fid": 20, "Nombre": "CEDIS Tula / Atitalaquia", "Direccion": "Parque Industrial Atitalaquia, Atitalaquia, Hgo.", "Latitud": 20.045, "Longitud": -99.215 }, "geometry": { "type": "Point", "coordinates": [ -99.215, 20.045 ] } },
{ "type": "Feature", "properties": { "fid": 21, "Nombre": "CEDIS Bajio II (Leon)", "Direccion": "Parque Industrial Colinas de Leon, Leon, Gto.", "Latitud": 21.142, "Longitud": -101.765 }, "geometry": { "type": "Point", "coordinates": [ -101.765, 21.142 ] } },
{ "type": "Feature", "properties": { "fid": 22, "Nombre": "CEDIS Aguascalientes", "Direccion": "Parque Industrial", "Latitud": 21.86386, "Longitud": 102.23103 }, "geometry": { "type": "Point", "coordinates": [ 102.23103, 21.86386 ] } },
{ "type": "Feature", "properties": { "fid": 23, "Nombre": "CEDIS San Luis Potosí", "Direccion": "Parque Industrial", "Latitud": 22.12465, "Longitud": -100.8149 }, "geometry": { "type": "Point", "coordinates": [ -100.8149, 22.12465 ] } },
{ "type": "Feature", "properties": { "fid": 24, "Nombre": "CEDIS Aguascalientes", "Direccion": "Parque Industrial", "Latitud": 21.86386, "Longitud": -102.23103 }, "geometry": { "type": "Point", "coordinates": [ -102.217563125276911, 21.861845194557869 ] } }
]
}
